[{"OBJECT_NAME":"MACSAT (FINCH 1)","OBJECT_ID":"2023-155J","EPOCH":"2026-03-09T18:08:25.338048","MEAN_MOTION":15.19694714,"ECCENTRICITY":0.00037335,"INCLINATION":97.5815,"RA_OF_ASC_NODE":150.2689,"ARG_OF_PERICENTER":71.2233,"MEAN_ANOMALY":288.9406,"EPHEMERIS_TYPE":0,"CLASSIFICATION_TYPE":"U","NORAD_CAT_ID":58024,"ELEMENT_SET_NO":999,"REV_AT_EPOCH":13322,"BSTAR":0.00027017053,"MEAN_MOTION_DOT":5.699e-5,"MEAN_MOTION_DDOT":0},{"OBJECT_NAME":"GHGSAT-C13","OBJECT_ID":"2025-135W","EPOCH":"2026-03-09T21:19:51.572640","MEAN_MOTION":15.20248668,"ECCENTRICITY":0.00027022,"INCLINATION":97.4646,"RA_OF_ASC_NODE":185.1231,"ARG_OF_PERICENTER":97.1001,"MEAN_ANOMALY":263.0541,"EPHEMERIS_TYPE":0,"CLASSIFICATION_TYPE":"U","NORAD_CAT_ID":64548,"ELEMENT_SET_NO":999,"REV_AT_EPOCH":3976,"BSTAR":0.00021160273,"MEAN_MOTION_DOT":4.522e-5,"MEAN_MOTION_DDOT":0}]
